NORAD_CAT_ID,OBJECT_NAME,OBJECT_TYPE,EPOCH,MEAN_MOTION,ECCENTRICITY,INCLINATION,RA_OF_ASC_NODE,ARG_OF_PERICENTER,MEAN_ANOMALY,BSTAR,MEAN_MOTION_DOT,MEAN_MOTION_DDOT,TLE_LINE0,TLE_LINE1,TLE_LINE2,SEMIMAJOR_AXIS,PERIOD,APOGEE,PERIGEE,DECAYED
54061.0,STARLINK-5209,PAYLOAD,2024-06-22 09:49:22,15.08836603,0.0001327,53.2165,235.7147,91.4322,268.6822,4.6627e-06,-2.14e-06,0.0,0 STARLINK-5209,1 54061U 22136L   24174.40928743 -.00000214  00000-0  46627-5 0  9993,2 54061  53.2165 235.7147 0001327  91.4322 268.6822 15.08836603 93425,6917.891,95.438,540.674,538.838,0.0
54061.0,STARLINK-5209,PAYLOAD,2024-06-23 12:50:55,15.08843523,0.0001275,53.2162,230.6587,85.811,274.3028,0.00012491,1.701e-05,0.0,0 STARLINK-5209,1 54061U 22136L   24175.53536103  .00001701  00000-0  12491-3 0  9994,2 54061  53.2162 230.6587 0001275  85.8110 274.3028 15.08843523 93597,6917.87,95.437,540.617,538.853,0.0
54061.0,STARLINK-5209,PAYLOAD,2024-06-24 11:06:19,15.08844985,0.0001293,53.2161,226.4964,86.4853,273.6287,9.8607e-05,1.282e-05,0.0,0 STARLINK-5209,1 54061U 22136L   24176.46272015  .00001282  00000-0  98607-4 0  9994,2 54061  53.2161 226.4964 0001293  86.4853 273.6287 15.08844985 93254,6917.865,95.437,540.625,538.836,0.0
54061.0,STARLINK-5209,PAYLOAD,2024-06-25 10:57:06,15.08841356,0.0001481,53.2161,222.0369,75.8991,284.2166,-1.4676e-05,-5.22e-06,0.0,0 STARLINK-5209,1 54061U 22136L   24177.45632594 -.00000522  00000-0 -14676-4 0  9998,2 54061  53.2161 222.0369 0001481  75.8991 284.2166 15.08841356 93881,6917.876,95.437,540.766,538.717,0.0
54061.0,STARLINK-5209,PAYLOAD,2024-06-26 09:12:29,15.08847616,0.0001383,53.2157,217.8711,82.0755,278.0395,2.209e-05,6.4e-07,0.0,0 STARLINK-5209,1 54061U 22136L   24178.38367866  .00000064  00000-0  22090-4 0  9996,2 54061  53.2157 217.8711 0001383  82.0755 278.0395 15.08847616 94025,6917.857,95.437,540.679,538.765,0.0
54061.0,STARLINK-5209,PAYLOAD,2024-06-27 09:03:17,15.08837964,0.0001241,53.2143,213.4109,86.2478,273.8656,3.5432e-05,2.76e-06,0.0,0 STARLINK-5209,1 54061U 22136L   24179.37728435  .00000276  00000-0  35432-4 0  9998,2 54061  53.2143 213.4109 0001241  86.2478 273.8656 15.08837964 94178,6917.887,95.438,540.61,538.893,0.0
54061.0,STARLINK-5209,PAYLOAD,2024-06-28 10:29:27,15.08838276,0.0001286,53.2145,208.6528,93.3998,266.7141,2.9902e-05,1.88e-06,0.0,0 STARLINK-5209,1 54061U 22136L   24180.43712611  .00000188  00000-0  29902-4 0  9993,2 54061  53.2145 208.6528 0001286  93.3998 266.7141 15.08838276 94331,6917.886,95.438,540.64,538.861,0.0
54061.0,STARLINK-5209,PAYLOAD,2024-06-29 10:20:15,15.08836451,0.0001256,53.2149,204.1926,91.6028,268.5108,5.5038e-05,5.88e-06,0.0,0 STARLINK-5209,1 54061U 22136L   24181.43072964  .00000588  00000-0  55038-4 0  9997,2 54061  53.2149 204.1926 0001256  91.6028 268.5108 15.08836451 94000,6917.891,95.438,540.625,538.887,0.0
54061.0,STARLINK-5209,PAYLOAD,2024-06-29 18:17:10,15.08835094,0.0001253,53.215,202.7054,86.6544,273.4592,3.2561e-05,2.3e-06,0.0,0 STARLINK-5209,1 54061U 22136L   24181.76193218  .00000230  00000-0  32561-4 0  9999,2 54061  53.2150 202.7054 0001253  86.6544 273.4592 15.08835094 94534,6917.895,95.438,540.627,538.894,0.0
54061.0,STARLINK-5209,PAYLOAD,2024-06-30 10:11:02,15.08836918,0.0001262,53.2152,199.7322,90.3185,269.7952,4.7377e-05,4.66e-06,0.0,0 STARLINK-5209,1 54061U 22136L   24182.42433303  .00000466  00000-0  47377-4 0  9997,2 54061  53.2152 199.7322 0001262  90.3185 269.7952 15.08836918 94154,6917.89,95.438,540.628,538.882,0.0
54061.0,STARLINK-5209,PAYLOAD,2024-06-30 18:07:57,15.08838227,0.0001259,53.2152,198.2455,87.6098,272.5038,6.1997e-05,6.99e-06,0.0,0 STARLINK-5209,1 54061U 22136L   24182.75553239  .00000699  00000-0  61997-4 0  9996,2 54061  53.2152 198.2455 0001259  87.6098 272.5038 15.08838227 94201,6917.886,95.438,540.622,538.88,0.0
54061.0,STARLINK-5209,PAYLOAD,2024-07-01 05:15:39,15.08840909,0.000126,53.2152,196.1636,86.684,273.4296,8.5199e-05,1.068e-05,0.0,0 STARLINK-5209,1 54061U 22136L   24183.21921077  .00001068  00000-0  85199-4 0  9998,2 54061  53.2152 196.1636 0001260  86.6840 273.4296 15.08840909 94751,6917.878,95.437,540.614,538.871,0.0
54061.0,STARLINK-5209,PAYLOAD,2024-07-01 10:01:49,15.08842003,0.0001258,53.215,195.2714,85.8075,274.3061,9.1032e-05,1.161e-05,0.0,0 STARLINK-5209,1 54061U 22136L   24183.41793000  .00001161  00000-0  91032-4 0  9990,2 54061  53.2150 195.2714 0001258  85.8075 274.3061 15.08842003 94302,6917.874,95.437,540.61,538.869,0.0
54061.0,STARLINK-5209,PAYLOAD,2024-07-01 17:58:44,15.08840684,0.0001235,53.2151,193.7848,88.042,272.0714,7.9252e-05,9.74e-06,0.0,0 STARLINK-5209,1 54061U 22136L   24183.74913081  .00000974  00000-0  79252-4 0  9990,2 54061  53.2151 193.7848 0001235  88.0420 272.0714 15.08840684 94356,6917.878,95.438,540.598,538.889,0.0
54061.0,STARLINK-5209,PAYLOAD,2024-07-02 08:17:13,15.08840903,0.000122,53.2149,191.1083,89.5274,270.5858,7.2121e-05,8.6e-06,0.0,0 STARLINK-5209,1 54061U 22136L   24184.34529131  .00000860  00000-0  72121-4 0  9998,2 54061  53.2149 191.1083 0001220  89.5274 270.5858 15.08840903 94922,6917.878,95.437,540.587,538.899,0.0
54061.0,STARLINK-5209,PAYLOAD,2024-07-02 17:49:32,15.08839456,0.0001214,53.2147,189.3244,88.3074,271.8058,3.0775e-05,2.02e-06,0.0,0 STARLINK-5209,1 54061U 22136L   24184.74273309  .00000202  00000-0  30775-4 0  9994,2 54061  53.2147 189.3244 0001214  88.3074 271.8058 15.08839456 94507,6917.882,95.438,540.587,538.907,0.0
54061.0,STARLINK-5209,PAYLOAD,2024-07-03 17:40:18,15.08842067,0.000122,53.2149,184.8634,89.3085,270.8046,3.281e-05,2.34e-06,0.0,0 STARLINK-5209,1 54061U 22136L   24185.73633018  .00000234  00000-0  32810-4 0  9998,2 54061  53.2149 184.8634 0001220  89.3085 270.8046 15.08842067 95130,6917.874,95.437,540.583,538.895,0.0
54061.0,STARLINK-5209,PAYLOAD,2024-07-04 09:34:09,15.08845883,0.0001236,53.2151,181.8901,86.6791,273.4343,7.4831e-05,9.03e-06,0.0,0 STARLINK-5209,1 54061U 22136L   24186.39872498  .00000903  00000-0  74831-4 0  9990,2 54061  53.2151 181.8901 0001236  86.6791 273.4343 15.08845883 94753,6917.862,95.437,540.582,538.872,0.0
54061.0,STARLINK-5209,PAYLOAD,2024-07-05 04:38:48,15.08835347,0.000131,53.2155,178.3207,89.1232,270.9911,1.2573e-05,-8.8e-07,0.0,0 STARLINK-5209,1 54061U 22136L   24187.19361364 -.00000088  00000-0  12573-4 0  9994,2 54061  53.2155 178.3207 0001310  89.1232 270.9911 15.08835347 95352,6917.895,95.438,540.666,538.853,0.0
54061.0,STARLINK-5209,PAYLOAD,2024-07-05 06:14:11,15.088369,0.0001316,53.2156,178.0231,90.2725,269.8417,2.4413e-05,1.01e-06,0.0,0 STARLINK-5209,1 54061U 22136L   24187.25985232  .00000101  00000-0  24413-4 0  9998,2 54061  53.2156 178.0231 0001316  90.2725 269.8417 15.08836900 94884,6917.89,95.438,540.665,538.844,0.0
54061.0,STARLINK-5209,PAYLOAD,2024-07-06 06:04:58,15.08839961,0.0001298,53.2159,173.5629,88.7608,271.3533,-3.132e-06,-3.38e-06,0.0,0 STARLINK-5209,1 54061U 22136L   24188.25345242 -.00000338  00000-0 -31320-5 0  9990,2 54061  53.2159 173.5629 0001298  88.7608 271.3533 15.08839961 95517,6917.881,95.438,540.643,538.848,0.0
54061.0,STARLINK-5209,PAYLOAD,2024-07-06 15:37:17,15.0883642,0.0001305,53.2162,171.7792,88.2225,271.8917,5.0818e-06,-2.07e-06,0.0,0 STARLINK-5209,1 54061U 22136L   24188.65089448 -.00000207  00000-0  50818-5 0  9994,2 54061  53.2162 171.7792 0001305  88.2225 271.8917 15.08836420 95092,6917.891,95.438,540.659,538.854,0.0
54061.0,STARLINK-5209,PAYLOAD,2024-07-07 05:55:45,15.08833603,0.0001429,53.2168,169.105,94.0079,266.1076,2.1557e-05,5.5e-07,0.0,0 STARLINK-5209,1 54061U 22136L   24189.24705834  .00000055  00000-0  21557-4 0  9991,2 54061  53.2168 169.1050 0001429  94.0079 266.1076 15.08833603 95661,6917.9,95.438,540.754,538.776,0.0
54061.0,STARLINK-5209,PAYLOAD,2024-07-08 07:21:55,15.08839466,0.0001394,53.2163,164.3466,93.5082,266.6069,6.5535e-05,7.55e-06,0.0,0 STARLINK-5209,1 54061U 22136L   24190.30689636  .00000755  00000-0  65535-4 0  9992,2 54061  53.2163 164.3466 0001394  93.5082 266.6069 15.08839466 95821,6917.882,95.438,540.711,538.783,0.0
54061.0,STARLINK-5209,PAYLOAD,2024-07-08 15:18:51,15.088376,0.0001402,53.2165,162.8601,95.1112,265.004,4.438e-05,4.18e-06,0.0,0 STARLINK-5209,1 54061U 22136L   24190.63809887  .00000418  00000-0  44380-4 0  9991,2 54061  53.2165 162.8601 0001402  95.1112 265.0040 15.08837600 95391,6917.888,95.438,540.723,538.783,0.0
54061.0,STARLINK-5209,PAYLOAD,2024-07-09 07:12:42,15.08840964,0.0001384,53.2159,159.8857,92.7252,267.3899,7.4975e-05,9.06e-06,0.0,0 STARLINK-5209,1 54061U 22136L   24191.30049660  .00000906  00000-0  74975-4 0  9996,2 54061  53.2159 159.8857 0001384  92.7252 267.3899 15.08840964 95495,6917.877,95.437,540.7,538.785,0.0
54061.0,STARLINK-5209,PAYLOAD,2024-07-09 15:09:39,15.08836505,0.000142,53.2161,158.3985,86.6898,273.4257,2.7069e-05,1.43e-06,0.0,0 STARLINK-5209,1 54061U 22136L   24191.63170161  .00000143  00000-0  27069-4 0  9998,2 54061  53.2161 158.3985 0001420  86.6898 273.4257 15.08836505 96025,6917.891,95.438,540.738,538.774,0.0
54061.0,STARLINK-5209,PAYLOAD,2024-07-10 07:03:30,15.08839768,0.0001389,53.2157,155.4231,93.5631,266.552,9.2875e-06,-1.4e-06,0.0,0 STARLINK-5209,1 54061U 22136L   24192.29410118 -.00000140  00000-0  92875-5 0  9996,2 54061  53.2157 155.4231 0001389  93.5631 266.5520 15.08839768 95645,6917.881,95.438,540.707,538.785,0.0
54061.0,STARLINK-5209,PAYLOAD,2024-07-10 15:00:26,15.08836959,0.0001356,53.2157,153.9358,97.7987,262.3159,1.2835e-06,-2.67e-06,0.0,0 STARLINK-5209,1 54061U 22136L   24192.62530322 -.00000267  00000-0  12835-5 0  9991,2 54061  53.2157 153.9358 0001356  97.7987 262.3159 15.08836959 95698,6917.89,95.438,540.693,538.817,0.0
54061.0,STARLINK-5209,PAYLOAD,2024-07-11 03:43:30,15.08844781,0.0001366,53.2159,151.556,96.6442,263.4705,1.5016e-05,-4.9e-07,0.0,0 STARLINK-5209,1 54061U 22136L   24193.15521838 -.00000049  00000-0  15016-4 0  9993,2 54061  53.2159 151.5560 0001366  96.6442 263.4705 15.08844781 96258,6917.866,95.437,540.676,538.786,0.0
